OBJECT_NAME,OBJECT_ID,EPOCH,MEAN_MOTION,ECCENTRICITY,INCLINATION,RA_OF_ASC_NODE,ARG_OF_PERICENTER,MEAN_ANOMALY,EPHEMERIS_TYPE,CLASSIFICATION_TYPE,NORAD_CAT_ID,ELEMENT_SET_NO,REV_AT_EPOCH,BSTAR,MEAN_MOTION_DOT,MEAN_MOTION_DDOT
STARLINK-35686,2025-257AD,2026-06-05T16:16:21.250272,15.34374136,.0002536,53.1567,166.9915,177.4814,182.6202,0,U,66407,999,3322,.84802E-3,.28362E-3,0
STARLINK-35679,2025-257AE,2026-06-05T08:33:25.241760,15.34408499,.0001072,53.1576,168.5375,77.9176,282.1947,0,U,66408,999,3317,.54395E-3,.18051E-3,0
STARLINK-35617,2025-259A,2026-06-05T15:57:42.427296,15.27644533,.0002835,43.0045,137.7225,270.1019,89.9508,0,U,66422,999,3294,.64641E-3,.17604E-3,0
STARLINK-35618,2025-259B,2026-06-05T15:50:17.702304,15.27661036,.000182,43.0032,137.6850,283.9576,76.1073,0,U,66423,999,3294,.75704E-3,.2068E-3,0
STARLINK-35588,2025-259C,2026-06-05T15:46:35.515200,15.27589059,.0001705,43.0034,137.6626,268.8496,91.2160,0,U,66424,999,3294,.65769E-3,.17885E-3,0
STARLINK-35555,2025-259D,2026-06-05T06:16:06.165408,15.27596640,.0001219,43.0014,139.8420,280.4339,79.6375,0,U,66425,999,3288,.60683E-3,.16482E-3,0
STARLINK-35589,2025-259E,2026-06-05T15:37:20.328672,15.27590867,.000173,42.9971,137.6098,270.0191,90.0463,0,U,66426,999,3294,.59866E-3,.16254E-3,0
STARLINK-35611,2025-259F,2026-06-05T15:31:49.677600,15.27560558,.0001253,43.0014,137.5754,270.3617,89.7091,0,U,66427,999,3294,.6415E-3,.17422E-3,0
STARLINK-35610,2025-259G,2026-06-05T15:26:15.497088,15.27599576,.000164,42.9998,137.5455,267.6290,92.4374,0,U,66428,999,3294,.62241E-3,.16915E-3,0
STARLINK-35533,2025-259H,2026-06-05T15:20:43.143936,15.27579179,.0001829,43.0000,137.5157,279.6152,80.4493,0,U,66429,999,3294,.63386E-3,.17221E-3,0
STARLINK-35470,2025-259J,2026-06-05T15:15:10.033920,15.27561451,.000187,43.0014,137.4886,268.6946,91.3691,0,U,66430,999,3294,.75828E-3,.20651E-3,0
STARLINK-35439,2025-259K,2026-06-05T15:11:25.145088,15.27634126,.0005084,43.0003,137.4668,280.7854,79.2425,0,U,66431,999,3294,.74121E-3,.20229E-3,0
STARLINK-35446,2025-259L,2026-06-05T15:09:35.399808,15.27634923,.0001181,43.0011,137.4568,292.2661,67.8065,0,U,66432,999,3294,.73295E-3,.19995E-3,0
STARLINK-35457,2025-259M,2026-06-05T05:40:58.222272,15.27620110,.0000693,42.9983,139.6492,243.2155,116.8626,0,U,66433,999,3288,.62147E-3,.169E-3,0
STARLINK-35389,2025-259N,2026-06-05T05:39:06.615072,15.27623201,.0000637,42.9976,139.6410,225.2893,134.7907,0,U,66434,999,3288,.58797E-3,.15974E-3,0
STARLINK-35502,2025-259P,2026-06-05T05:29:50.753760,15.27645918,.000181,43.0033,139.5924,260.8951,99.1696,0,U,66435,999,3288,.60344E-3,.16414E-3,0
STARLINK-35501,2025-259Q,2026-06-05T05:37:14.828160,15.27592808,.0001208,42.9998,139.6313,270.4524,89.6189,0,U,66436,999,3288,.55388E-3,.15016E-3,0
STARLINK-35474,2025-259R,2026-06-05T15:52:08.246784,15.27660644,.0002638,43.0046,137.6875,277.2275,82.8277,0,U,66437,999,3294,.71953E-3,.1964E-3,0
STARLINK-34681,2025-259S,2026-06-05T06:17:57.021792,15.27564940,.0001129,43.0025,139.8486,269.9080,90.1643,0,U,66438,999,3277,.59014E-3,.16005E-3,0
STARLINK-35327,2025-259T,2026-06-05T05:27:59.658048,15.27597058,.0001343,43.0005,139.5832,267.3763,92.6934,0,U,66439,999,3288,.69488E-3,.18918E-3,0
STARLINK-35405,2025-259U,2026-06-05T15:35:29.052384,15.27602030,.0001607,42.9991,137.5922,266.1218,93.9450,0,U,66440,999,3294,.62057E-3,.16865E-3,0
STARLINK-35426,2025-259V,2026-06-05T15:24:23.349024,15.27579585,.0001197,43.0015,137.5299,275.1295,84.9420,0,U,66441,999,3294,.61823E-3,.16789E-3,0
STARLINK-34724,2025-259W,2026-06-05T02:16:11.647200,15.27634738,.00008809,43.0002,141.1654,291.9876,68.0882,0,U,66442,999,3285,.6331873E-3,.17232E-3,0
STARLINK-35219,2025-259X,2026-06-05T05:18:57.251808,15.27578909,.0001745,43.0022,140.3994,285.1415,74.9243,0,U,66443,999,3276,.54224E-3,.14688E-3,0
STARLINK-35360,2025-259Y,2026-06-05T05:33:31.029696,15.27622257,.0001313,43.0006,139.6065,250.1511,109.9199,0,U,66444,999,3288,.5823E-3,.15816E-3,0
STARLINK-34698,2025-259Z,2026-06-05T16:12:29.704320,15.27586136,.0002057,43.0028,137.7863,286.3283,73.7342,0,U,66445,999,3283,.66889E-3,.18193E-3,0
STARLINK-34986,2025-259AA,2026-06-05T16:03:14.846112,15.27585252,.0001503,43.0032,137.7373,272.8651,87.2028,0,U,66446,999,3294,.66132E-3,.17983E-3,0
STARLINK-34851,2025-259AB,2026-06-05T05:22:39.097632,15.27658277,.000187,42.9978,140.4123,125.6469,234.4557,0,U,66447,999,3276,.69034E-3,.18829E-3,0
STARLINK-35355,2025-259AC,2026-06-05T16:14:20.954688,15.27581133,.0001802,43.0021,137.7914,264.7127,95.3519,0,U,66448,999,3294,.61894E-3,.16809E-3,0
STARLINK-34720,2025-259AD,2026-06-05T16:06:57.777120,15.27606284,.000235,43.0037,137.7543,282.1808,77.8780,0,U,66449,999,3283,.65279E-3,.17759E-3,0
STARLINK-35334,2025-259AE,2026-06-05T16:01:23.829888,15.27581950,.0001385,43.0032,137.7256,273.5545,86.5148,0,U,66450,999,3294,.6318E-3,.17165E-3,0
STARLINK-35643,2025-262A,2026-06-05T07:31:38.507232,15.27662397,.0000562,42.9999,161.6409,228.6079,131.4724,0,U,66456,999,3230,.75754E-3,.20694E-3,0
STARLINK-35466,2025-262B,2026-06-05T07:18:41.251968,15.27601474,.0000879,42.9949,161.5735,255.0322,105.0432,0,U,66457,999,3230,.49549E-3,.13407E-3,0
STARLINK-35684,2025-262C,2026-06-05T07:22:23.305152,15.27655372,.0000992,42.9988,161.5901,261.3121,98.7618,0,U,66458,999,3230,.79153E-3,.21633E-3,0
STARLINK-35449,2025-262D,2026-06-05T02:26:58.524000,15.27632213,.00003966,42.9966,162.6300,348.1439,11.9403,0,U,66459,999,3227,.6531884E-3,.17784E-3,0
STARLINK-35424,2025-262E,2026-06-05T06:41:40.658784,15.27582929,.0001626,43.0013,161.3779,272.1552,87.9113,0,U,66460,999,3230,.1014E-2,.27748E-3,0
STARLINK-35132,2025-262F,2026-06-04T03:57:18.966240,15.27634559,.000146,42.9975,167.6318,229.3457,130.7268,0,U,66461,999,3213,.73695403E-3,.20106E-3,0
STARLINK-35499,2025-262G,2026-06-01T09:49:49.653408,15.27530496,.00012661,42.9989,183.0782,244.4182,115.6539,0,U,66462,999,3171,.67036607E-3,.18203E-3,0
STARLINK-35463,2025-262H,2026-06-03T11:09:21.335328,15.27613859,.00013013,42.9973,171.8396,303.0535,57.0192,0,U,66463,999,3202,.61086293E-3,.16603E-3,0
STARLINK-35435,2025-262J,2026-06-05T07:46:13.797120,15.27594987,.0001038,42.9991,160.8461,280.9688,79.1046,0,U,66464,999,3231,.55187E-3,.14962E-3,0
STARLINK-35448,2025-262K,2026-06-05T07:20:32.212896,15.27586682,.0000842,42.9995,161.5746,277.2512,82.8244,0,U,66465,999,3230,.51736E-3,.14004E-3,0
STARLINK-35388,2025-262L,2026-06-01T09:57:11.758752,15.27585541,.00019877,43.0009,183.1148,283.5763,76.4867,0,U,66466,999,3171,.26993865E-3,.7174E-4,0
STARLINK-35682,2025-262M,2026-06-05T07:44:35.524032,15.27590572,.0001154,43.0011,161.7071,285.5802,74.4922,0,U,66467,999,3230,.56424E-3,.15302E-3,0
STARLINK-35331,2025-262N,2026-06-05T07:33:28.537632,15.27578048,.0000846,42.9985,161.6432,275.5108,84.5648,0,U,66468,999,3230,-.44867E-3,-.12586E-3,0
STARLINK-35451,2025-262P,2026-06-02T21:49:50.426688,15.27609895,.0000973,42.9967,174.5484,163.0548,197.0337,0,U,66469,999,3194,.63641E-3,.17308E-3,0
STARLINK-35655,2025-262Q,2026-06-05T02:25:07.358304,15.27646328,.00004915,42.9974,162.6145,317.1320,42.9493,0,U,66470,999,3227,.82401797E-3,.22528E-3,0
STARLINK-35569,2025-262R,2026-06-05T06:45:22.858848,15.27577764,.0001456,43.0003,161.3918,275.5216,84.5470,0,U,66471,999,3230,.49431E-3,.13364E-3,0
STARLINK-35567,2025-262S,2026-06-05T03:18:33.971616,15.27574891,.00011893,43.0020,162.0371,266.3266,93.7450,0,U,66472,999,3228,.9345921E-3,.25541E-3,0
STARLINK-35568,2025-262T,2026-06-04T03:24:15.207552,15.27642804,.00019951,42.9991,168.3168,234.3255,125.7411,0,U,66473,999,3212,.1084259E-2,.29753E-3,0
STARLINK-35620,2025-262U,2026-06-05T06:39:49.493952,15.27593471,.0001702,43.0012,161.3596,263.5856,96.4802,0,U,66474,999,3230,.51415E-3,.13919E-3,0
STARLINK-35538,2025-262V,2026-06-05T07:27:56.327040,15.27584675,.0000977,42.9986,161.6127,262.7505,97.3235,0,U,66475,999,3230,.48289E-3,.13052E-3,0
STARLINK-35372,2025-262W,2026-06-01T10:28:41.247264,15.27579176,.00013748,42.9995,183.2727,269.4116,90.6578,0,U,66476,999,3160,.66081071E-3,.17966E-3,0
STARLINK-35354,2025-262X,2026-06-05T01:53:39.125184,15.27581630,.00021409,43.0024,162.4462,261.0536,99.0074,0,U,66477,999,3227,.65382659E-3,.17774E-3,0
STARLINK-35283,2025-262Y,2026-06-05T07:24:14.122656,15.27633639,.000078,42.9985,161.5888,252.2726,107.8040,0,U,66478,999,3230,.67648E-3,.1843E-3,0
STARLINK-35581,2025-262Z,2026-06-05T03:05:38.632704,15.27600933,.00013228,43.0015,161.9656,261.1001,98.9701,0,U,66479,999,3228,.1240877E-2,.34064E-3,0
STARLINK-35670,2025-262AA,2026-06-05T02:28:49.149696,15.27591951,.00012151,42.9994,162.6289,308.0870,51.9872,0,U,66480,999,3227,.7212086E-3,.19644E-3,0
STARLINK-35698,2025-262AB,2026-06-04T11:27:44.490528,15.27604068,.00016951,43.0026,165.6744,268.0228,92.0430,0,U,66481,999,3218,.67069115E-3,.18253E-3,0
STARLINK-35648,2025-262AC,2026-06-05T06:43:31.503072,15.27580216,.0001949,43.0009,161.3768,277.6747,82.3883,0,U,66482,999,3214,.50952E-3,.13785E-3,0
STARLINK-35654,2025-262AD,2026-06-05T03:20:24.606816,15.27642225,.00016048,42.9982,162.0328,175.4600,184.6267,0,U,66483,999,3228,.71466358E-3,.19493E-3,0
STARLINK-35371,2025-262AE,2026-06-05T03:00:16.140384,15.27570590,.00017121,43.0006,162.7938,225.5017,134.5695,0,U,66484,999,3227,.61378572E-3,.16661E-3,0
STARLINK-34774,2025-263A,2026-06-05T10:44:46.991040,15.27595351,.0000816,42.9968,214.8063,266.4962,93.5796,0,U,66485,999,3232,.74463E-3,.20294E-3,0
STARLINK-34844,2025-263B,2026-06-05T10:42:56.000736,15.27590886,.000069,42.9974,214.7940,122.8104,237.2814,0,U,66486,999,3227,.56583E-3,.15346E-3,0
STARLINK-34733,2025-263C,2026-06-05T10:39:13.748832,15.27616025,.0000208,42.9958,214.7739,256.2785,103.8043,0,U,66487,999,3232,.52285E-3,.14169E-3,0
STARLINK-35515,2025-263D,2026-06-05T10:55:53.014080,15.27657671,.0000883,42.9975,214.8577,246.0326,114.0433,0,U,66488,999,3232,.65517E-3,.17853E-3,0
STARLINK-35696,2025-263E,2026-06-05T11:14:23.058816,15.27619501,.000102,42.9998,214.9592,268.8491,91.2244,0,U,66489,999,3232,.50493E-3,.13675E-3,0
